NORAD_CAT_ID,OBJECT_NAME,OBJECT_TYPE,EPOCH,MEAN_MOTION,ECCENTRICITY,INCLINATION,RA_OF_ASC_NODE,ARG_OF_PERICENTER,MEAN_ANOMALY,BSTAR,MEAN_MOTION_DOT,MEAN_MOTION_DDOT,TLE_LINE0,TLE_LINE1,TLE_LINE2,SEMIMAJOR_AXIS,PERIOD,APOGEE,PERIGEE,DECAYED
53832.0,STARLINK-4747,PAYLOAD,2023-08-27 13:44:01,15.08836377,0.0001497,53.2161,136.8836,82.164,277.9522,2.662e-05,1.36e-06,0.0,0 STARLINK-4747,1 53832U 22114Q   23239.57223979  .00000136  00000-0  26620-4 0  9994,2 53832  53.2161 136.8836 0001497  82.1640 277.9522 15.08836377 52636,6917.891,95.438,540.792,538.721,0.0
53832.0,STARLINK-4747,PAYLOAD,2023-08-28 02:27:05,15.08846619,0.0001391,53.2167,134.5031,91.6958,268.4194,3.9534e-05,3.41e-06,0.0,0 STARLINK-4747,1 53832U 22114Q   23240.10215210  .00000341  00000-0  39534-4 0  9990,2 53832  53.2167 134.5031 0001391  91.6958 268.4194 15.08846619 52713,6917.86,95.437,540.687,538.763,0.0
53832.0,STARLINK-4747,PAYLOAD,2023-08-28 10:24:02,15.08838159,0.0001606,53.2181,133.0163,82.665,277.4525,8.9988e-06,-1.45e-06,0.0,0 STARLINK-4747,1 53832U 22114Q   23240.43335896 -.00000145  00000-0  89988-5 0  9991,2 53832  53.2181 133.0163 0001606  82.6650 277.4525 15.08838159 52760,6917.886,95.438,540.862,538.64,0.0
53832.0,STARLINK-4747,PAYLOAD,2023-08-28 21:31:44,15.08837774,0.0001462,53.2174,130.9342,87.4232,272.6927,-2.8114e-05,-7.35e-06,0.0,0 STARLINK-4747,1 53832U 22114Q   23240.89704115 -.00000735  00000-0 -28114-4 0  9994,2 53832  53.2174 130.9342 0001462  87.4232 272.6927 15.08837774 53379,6917.887,95.438,540.764,538.741,0.0
53832.0,STARLINK-4747,PAYLOAD,2023-08-29 19:47:07,15.0884027,0.0001719,53.2169,126.7712,114.4874,245.6297,9.0738e-06,-1.44e-06,0.0,0 STARLINK-4747,1 53832U 22114Q   23241.82439788 -.00000144  00000-0  90738-5 0  9994,2 53832  53.2169 126.7712 0001719 114.4874 245.6297 15.08840270 53516,6917.88,95.438,540.934,538.555,0.0
53832.0,STARLINK-4747,PAYLOAD,2023-08-30 02:08:40,15.08842204,0.0001438,53.2168,125.582,97.8731,262.2425,3.8251e-05,3.21e-06,0.0,0 STARLINK-4747,1 53832U 22114Q   23242.08935634  .00000321  00000-0  38251-4 0  9991,2 53832  53.2168 125.5820 0001438  97.8731 262.2425 15.08842204 53018,6917.874,95.437,540.733,538.744,0.0
53832.0,STARLINK-4747,PAYLOAD,2023-08-31 01:59:27,15.08841024,0.0001145,53.214,121.1229,88.781,271.3313,-1.5326e-05,-5.32e-06,0.0,0 STARLINK-4747,1 53832U 22114Q   23243.08295933 -.00000532  00000-0 -15326-4 0  9997,2 53832  53.2140 121.1229 0001145  88.7810 271.3313 15.08841024 53167,6917.877,95.437,540.534,538.95,0.0
53832.0,STARLINK-4747,PAYLOAD,2023-09-01 08:11:47,15.08842656,0.0001342,53.2131,115.4739,84.9445,275.17,-1.9493e-06,-3.19e-06,0.0,0 STARLINK-4747,1 53832U 22114Q   23244.34151881 -.00000319  00000-0 -19493-5 0  9993,2 53832  53.2131 115.4739 0001342  84.9445 275.1700 15.08842656 53355,6917.872,95.437,540.666,538.809,0.0
53832.0,STARLINK-4747,PAYLOAD,2023-09-01 16:08:43,15.08834443,0.0001465,53.2134,113.9875,88.1278,271.9882,3.2302e-06,-2.37e-06,0.0,0 STARLINK-4747,1 53832U 22114Q   23244.67272486 -.00000237  00000-0  32302-5 0  9996,2 53832  53.2134 113.9875 0001465  88.1278 271.9882 15.08834443 53404,6917.897,95.438,540.776,538.749,0.0
53832.0,STARLINK-4747,PAYLOAD,2023-09-02 08:02:34,15.08837695,0.0001562,53.2146,111.013,82.3077,277.8092,-4.0856e-05,-9.38e-06,0.0,0 STARLINK-4747,1 53832U 22114Q   23245.33512622 -.00000938  00000-0 -40856-4 0  9990,2 53832  53.2146 111.0130 0001562  82.3077 277.8092 15.08837695 54042,6917.887,95.438,540.833,538.672,0.0
53832.0,STARLINK-4747,PAYLOAD,2023-09-02 19:10:16,15.08839285,0.0001686,53.2163,108.9302,79.3058,280.8124,1.693e-05,-1.9e-07,0.0,0 STARLINK-4747,1 53832U 22114Q   23245.79880505 -.00000019  00000-0  16930-4 0  9993,2 53832  53.2163 108.9302 0001686  79.3058 280.8124 15.08839285 54114,6917.883,95.438,540.914,538.581,0.0
53832.0,STARLINK-4747,PAYLOAD,2023-09-02 23:56:26,15.088401,0.0001714,53.2158,108.0384,79.8384,280.2802,2.4996e-05,1.1e-06,0.0,0 STARLINK-4747,1 53832U 22114Q   23245.99752423  .00000110  00000-0  24996-4 0  9994,2 53832  53.2158 108.0384 0001714  79.8384 280.2802 15.08840100 53606,6917.88,95.438,540.931,538.559,0.0
53832.0,STARLINK-4747,PAYLOAD,2023-09-03 19:01:04,15.08834664,0.000175,53.2168,104.4683,79.1311,280.9878,2.7246e-05,1.46e-06,0.0,0 STARLINK-4747,1 53832U 22114Q   23246.79240908  .00000146  00000-0  27246-4 0  9993,2 53832  53.2168 104.4683 0001750  79.1311 280.9878 15.08834664 53723,6917.897,95.438,540.972,538.551,0.0
53832.0,STARLINK-4747,PAYLOAD,2023-09-04 07:44:09,15.08833827,0.0001211,53.2169,102.0922,85.5319,274.5812,2.5925e-05,1.25e-06,0.0,0 STARLINK-4747,1 53832U 22114Q   23247.32232968  .00000125  00000-0  25925-4 0  9999,2 53832  53.2169 102.0922 0001211  85.5319 274.5812 15.08833827 54341,6917.899,95.438,540.602,538.926,0.0
53832.0,STARLINK-4747,PAYLOAD,2023-09-04 20:27:14,15.08832794,0.0001304,53.2169,99.7136,85.9389,274.1753,1.5748e-05,-3.7e-07,0.0,0 STARLINK-4747,1 53832U 22114Q   23247.85225294 -.00000037  00000-0  15748-4 0  9996,2 53832  53.2169  99.7136 0001304  85.9389 274.1753 15.08832794 53884,6917.902,95.438,540.67,538.865,0.0
53832.0,STARLINK-4747,PAYLOAD,2023-09-04 23:38:00,15.08840252,0.0001376,53.217,99.1177,86.5981,273.5168,1.1814e-05,-1e-06,0.0,0 STARLINK-4747,1 53832U 22114Q   23247.98472898 -.00000100  00000-0  11814-4 0  9995,2 53832  53.2170  99.1177 0001376  86.5981 273.5168 15.08840252 53903,6917.88,95.438,540.697,538.793,0.0
53832.0,STARLINK-4747,PAYLOAD,2023-09-05 21:53:23,15.08847362,0.0001371,53.2171,94.9548,83.0986,277.0162,8.8344e-05,1.119e-05,0.0,0 STARLINK-4747,1 53832U 22114Q   23248.91208034  .00001119  00000-0  88344-4 0  9990,2 53832  53.2171  94.9548 0001371  83.0986 277.0162 15.08847362 54049,6917.858,95.437,540.671,538.774,0.0
53832.0,STARLINK-4747,PAYLOAD,2023-09-06 20:08:47,15.08840004,0.000135,53.2174,90.7891,90.9357,269.179,5.9924e-05,6.66e-06,0.0,0 STARLINK-4747,1 53832U 22114Q   23249.83944370  .00000666  00000-0  59924-4 0  9990,2 53832  53.2174  90.7891 0001350  90.9357 269.1790 15.08840004 54723,6917.88,95.438,540.679,538.811,0.0
53832.0,STARLINK-4747,PAYLOAD,2023-09-06 23:19:34,15.08843103,0.0001356,53.2178,90.1948,90.3719,269.7428,3.6905e-05,3e-06,0.0,0 STARLINK-4747,1 53832U 22114Q   23249.97192231  .00000300  00000-0  36905-4 0  9995,2 53832  53.2178  90.1948 0001356  90.3719 269.7428 15.08843103 54206,6917.871,95.437,540.674,538.798,0.0
53832.0,STARLINK-4747,PAYLOAD,2023-09-07 13:38:02,15.08838508,0.000154,53.2157,87.5195,93.7682,266.3486,-3.0982e-05,-7.81e-06,0.0,0 STARLINK-4747,1 53832U 22114Q   23250.56808645 -.00000781  00000-0 -30982-4 0  9999,2 53832  53.2157  87.5195 0001540  93.7682 266.3486 15.08838508 54837,6917.885,95.438,540.815,538.685,0.0
53832.0,STARLINK-4747,PAYLOAD,2023-09-08 13:28:49,15.08833948,0.0001616,53.2159,83.0585,93.3698,266.7479,2.5815e-05,1.23e-06,0.0,0 STARLINK-4747,1 53832U 22114Q   23251.56168763  .00000123  00000-0  25815-4 0  9997,2 53832  53.2159  83.0585 0001616  93.3698 266.7479 15.08833948 54985,6917.899,95.438,540.882,538.646,0.0
53832.0,STARLINK-4747,PAYLOAD,2023-09-08 18:14:58,15.08848773,0.0001389,53.217,82.1665,112.8303,247.2836,9.2031e-05,1.177e-05,0.0,0 STARLINK-4747,1 53832U 22114Q   23251.76039659  .00001177  00000-0  92031-4 0  9994,2 53832  53.2170  82.1665 0001389 112.8303 247.2836 15.08848773 54471,6917.854,95.437,540.679,538.758,0.0
53832.0,STARLINK-4747,PAYLOAD,2023-09-08 21:25:45,15.08844204,0.0001287,53.2173,81.572,87.4278,272.6862,3.9427e-05,3.4e-06,0.0,0 STARLINK-4747,1 53832U 22114Q   23251.89288250  .00000340  00000-0  39427-4 0  9992,2 53832  53.2173  81.5720 0001287  87.4278 272.6862 15.08844204 55033,6917.868,95.437,540.623,538.842,0.0
53832.0,STARLINK-4747,PAYLOAD,2023-09-09 05:22:41,15.08836062,0.0001327,53.2176,80.0845,87.646,272.4684,-1.4751e-05,-5.23e-06,0.0,0 STARLINK-4747,1 53832U 22114Q   23252.22408975 -.00000523  00000-0 -14751-4 0  9996,2 53832  53.2176  80.0845 0001327  87.6460 272.4684 15.08836062 54546,6917.892,95.438,540.675,538.839,0.0
53832.0,STARLINK-4747,PAYLOAD,2023-09-09 13:19:37,15.08829638,0.000133,53.2172,78.5994,88.7998,271.3147,-1.9928e-06,-3.2e-06,0.0,0 STARLINK-4747,1 53832U 22114Q   23252.55529543 -.00000320  00000-0 -19928-5 0  9994,2 53832  53.2172  78.5994 0001330  88.7998 271.3147 15.08829638 55130,6917.912,95.438,540.697,538.857,0.0
53832.0,STARLINK-4747,PAYLOAD,2023-09-10 11:35:01,15.08836557,0.0001261,53.2179,74.4363,90.306,269.8077,5.6933e-05,6.18e-06,0.0,0 STARLINK-4747,1 53832U 22114Q   23253.48265230  .00000618  00000-0  56933-4 0  9991,2 53832  53.2179  74.4363 0001261  90.3060 269.8077 15.08836557 55271,6917.891,95.438,540.628,538.884,0.0
53832.0,STARLINK-4747,PAYLOAD,2023-09-10 17:56:33,15.08838897,0.0001333,53.2185,73.2477,93.9567,266.1578,6.326e-05,7.19e-06,0.0,0 STARLINK-4747,1 53832U 22114Q   23253.74761117  .00000719  00000-0  63260-4 0  9998,2 53832  53.2185  73.2477 0001333  93.9567 266.1578 15.08838897 54771,6917.884,95.438,540.671,538.827,0.0
53832.0,STARLINK-4747,PAYLOAD,2023-09-11 05:04:15,15.08840477,0.0001298,53.2182,71.1656,88.7066,271.4075,3.9744e-05,3.45e-06,0.0,0 STARLINK-4747,1 53832U 22114Q   23254.21129109  .00000345  00000-0  39744-4 0  9995,2 53832  53.2182  71.1656 0001298  88.7066 271.4075 15.08840477 55386,6917.879,95.438,540.642,538.846,0.0
53832.0,STARLINK-4747,PAYLOAD,2023-09-11 22:33:29,15.08849244,0.0001299,53.2182,67.8941,89.6007,270.5134,0.00012553,1.711e-05,0.0,0 STARLINK-4747,1 53832U 22114Q   23254.93992324  .00001711  00000-0  12553-3 0  9997,2 53832  53.2182  67.8941 0001299  89.6007 270.5134 15.08849244 54950,6917.852,95.437,540.616,538.819,0.0
53832.0,STARLINK-4747,PAYLOAD,2023-09-12 11:16:35,15.0884139,0.0001414,53.2183,65.5151,85.6833,274.4321,-4.8995e-07,-2.96e-06,0.0,0 STARLINK-4747,1 53832U 22114Q   23255.46985250 -.00000296  00000-0 -48995-6 0  9997,2 53832  53.2183  65.5151 0001414  85.6833 274.4321 15.08841390 55036,6917.876,95.437,540.719,538.763,0.0
